{
  "cities": [
    {
      "cityname": "Aurelia",
      "places": [
        {
          "placename": "Golden Plaza",
          "description": "Aurelia's central square surrounded by historic buildings and bustling cafes."
        },
        {
          "placename": "Crystal Park",
          "description": "A serene park with shimmering ponds, perfect for a relaxing afternoon."
        }
      ]
    },
    {
      "cityname": "Cascadia",
      "places": [
        {
          "placename": "Cascade Falls",
          "description": "A stunning waterfall surrounded by lush greenery, offering hiking trails and picnicking spots."
        },
        {
          "placename": "Skyline Observatory",
          "description": "An observatory at the city's highest point, providing panoramic views of Cascadia's skyline."
        }
      ]
    },
    {
      "cityname": "Oceana Bay",
      "places": [
        {
          "placename": "Marine Pier",
          "description": "A bustling pier with shops, restaurants, and opportunities for boating and fishing."
        },
        {
          "placename": "Aquatic Museum",
          "description": "An interactive museum showcasing the diverse marine life found in Oceana Bay's waters."
        }
      ]
    },
    {
      "cityname": "Veridian Springs",
      "places": [
        {
          "placename": "Botanical Gardens",
          "description": "A sprawling garden with a vast collection of rare plants and themed landscapes."
        },
        {
          "placename": "Historic District",
          "description": "Wander through cobblestone streets lined with well-preserved colonial-era buildings."
        }
      ]
    },
    {
      "cityname": "Nova Harbor",
      "places": [
        {
          "placename": "Starlight Beach",
          "description": "A sandy beach known for its crystal-clear waters and vibrant nightlife."
        },
        {
          "placename": "Celestial Tower",
          "description": "An iconic tower offering breathtaking views of the city and the ocean beyond."
        }
      ]
    },
    {
      "cityname": "Sylvan Haven",
      "places": [
        {
          "placename": "Enchanted Forest",
          "description": "A magical forest with winding paths, hidden waterfalls, and whimsical creatures."
        },
        {
          "placename": "Twilight Lake",
          "description": "A tranquil lake where visitors can enjoy boating and watch the sunset amidst nature."
        }
      ]
    },
    {
      "cityname": "Avalora",
      "places": [
        {
          "placename": "Royal Castle",
          "description": "A majestic castle with opulent interiors, surrounded by beautifully landscaped gardens."
        },
        {
          "placename": "Artisan Alley",
          "description": "A bustling street filled with local artisans' shops, showcasing unique crafts and artworks."
        }
      ]
    }
  ]
}
